GSAT0101 (PRN E11)      
1 37846U 11060A   21160.18263152 -.00000083  00000-0  00000-0 0  9996
2 37846  56.8332  31.5065 0003729  24.8257 335.2522  1.70475474 59854
GSAT0102 (PRN E12)      
1 37847U 11060B   21160.39649250 -.00000082  00000-0  00000-0 0  9996
2 37847  56.8343  31.5001 0003788 352.2343 185.3747  1.70475679 59867
GSAT0103 (PRN E19)      
1 38857U 12055A   21160.22371808  .00000071  00000-0  00000-0 0  9993
2 38857  55.0459 151.9635 0005247 271.0302  88.9022  1.70473836 53741
GSAT0104 (PRN E20)      
1 38858U 12055B   21160.19448085  .00000071  00000-0  00000-0 0  9992
2 38858  55.0460 151.9657 0002904 275.5272  84.4323  1.70474160 53746
GSAT0201 (PRN E18)      
1 40128U 14050A   21159.14304655 -.00000113  00000-0  00000-0 0  9997
2 40128  50.4791 347.1926 1649567 111.0750 267.3612  1.85518914 44274
GSAT0202 (PRN E14)      
1 40129U 14050B   21159.94443067 -.00000110  00000-0  00000-0 0  9994
2 40129  50.5098 346.2099 1646766 111.9112 266.4211  1.85519572 46454
GSAT0203 (PRN E26)      
1 40544U 15017A   21159.96424822 -.00000085  00000-0  00000-0 0  9990
2 40544  56.6273  31.5970 0001508 273.0631  86.9786  1.70474786 37939
GSAT0204 (PRN E22)      
1 40545U 15017B   21159.04423500 -.00000089  00000-0  00000-0 0  9996
2 40545  56.6329  31.6331 0001009 233.7406 126.3060  1.70475820   960
GSAT0205 (PRN E24)      
1 40889U 15045A   21159.98551705 -.00000033  00000-0  00000-0 0  9999
2 40889  55.8808 272.2749 0003466  16.8440 343.1714  1.70475806 35740
GSAT0206 (PRN E30)      
1 40890U 15045B   21160.79159008 -.00000028  00000-0  00000-0 0  9996
2 40890  55.8797 272.2489 0001717   1.5829 358.4270  1.70475845 35782
GSAT0209 (PRN E09)      
1 41174U 15079A   21159.79281836  .00000071  00000-0  00000-0 0  9999
2 41174  55.0611 151.6760 0005818 304.1701  55.7690  1.70473339 33501
GSAT0208 (PRN E08)      
1 41175U 15079B   21160.59907033  .00000071  00000-0  00000-0 0  9994
2 41175  55.0592 151.6529 0005039 304.1555  55.7863  1.70473426 33931
GSAT0211 (PRN E02)      
1 41549U 16030A   21159.54683872 -.00000036  00000-0  00000-0 0  9994
2 41549  56.0246 272.1766 0002765 317.3503  42.6295  1.70475521 31397
GSAT0210 (PRN E01)      
1 41550U 16030B   21160.42622759 -.00000030  00000-0  00000-0 0  9996
2 41550  56.0234 272.1542 0002499 271.5319  88.4464  1.70475645 31403
GSAT0207 (PRN E07)      
1 41859U 16069A   21160.08544650  .00000071  00000-0  00000-0 0  9999
2 41859  54.7203 151.9417 0005899 293.8635  66.0680  1.70473285 28132
GSAT0212 (PRN E03)      
1 41860U 16069B   21159.93886999  .00000071  00000-0  00000-0 0  9998
2 41860  54.7174 151.9440 0004608 309.9230  50.0306  1.70473288 28382
GSAT0213 (PRN E04)      
1 41861U 16069C   21159.13137120  .00000072  00000-0  00000-0 0  9997
2 41861  54.7195 151.9709 0005369 277.2774  82.6602  1.70473416 28236
GSAT0214 (PRN E05)      
1 41862U 16069D   21159.27839920  .00000072  00000-0  00000-0 0  9990
2 41862  54.7182 151.9618 0004515 281.6582  78.2889  1.70473378 28369
GSAT0215 (PRN E21)      
1 43055U 17079A   21160.35580474 -.00000030  00000-0  00000-0 0  9991
2 43055  55.9989 271.9927 0002005 261.3037  98.6805  1.70474726 21726
GSAT0216 (PRN E25)      
1 43056U 17079B   21161.23489771 -.00000024  00000-0  00000+0 0  9990
2 43056  55.9987 271.9682 0003765 269.2025  90.7675  1.70474864 21722
GSAT0217 (PRN E27)      
1 43057U 17079C   21160.28185357 -.00000031  00000-0  00000-0 0  9997
2 43057  55.9976 271.9945 0003197 284.3881  75.5828  1.70474817 21729
GSAT0218 (PRN E31)      
1 43058U 17079D   21161.08845588 -.00000025  00000-0  00000+0 0  9998
2 43058  55.9970 271.9699 0004252 265.2391  94.7244  1.70474775 21736
GSAT0221 (PRN E15)      
1 43564U 18060A   21160.40057325 -.00000082  00000-0  00000-0 0  9994
2 43564  57.0128  31.3049 0002627 300.0869  59.9478  1.70475792 17901
GSAT0222 (PRN E33)      
1 43565U 18060B   21160.03383291 -.00000084  00000-0  00000-0 0  9990
2 43565  57.0142  31.3147 0002648 315.4237  44.6148  1.70475744 17945
GSAT0219 (PRN E36)      
1 43566U 18060C   21160.25441120 -.00000083  00000-0  00000-0 0  9990
2 43566  57.0154  31.3105 0002399 320.8436  39.1995  1.70475753 17924
GSAT0220 (PRN E13)      
1 43567U 18060D   21160.47423949 -.00000082  00000-0  00000-0 0  9993
2 43567  57.0153  31.3052 0002362 311.9630  48.0778  1.70475777 17915
